start=new Date('2023-04-09T00:00:00.000Z').valueOf();
sats=[{"NORAD_CAT_ID":"53704","MEAN_ELEMENT_THEORY":"SGP4","SEMIMAJOR_AXIS":"6917.886","INCLINATION":"53.2170","CLASSIFICATION_TYPE":"U","FILE":"3883725","RA_OF_ASC_NODE":"349.7426","BSTAR":"0.00000422630000","ELEMENT_SET_NO":"999","APOAPSIS":"540.401","MEAN_ANOMALY":"300.3383","TLE_LINE2":"2 53704  53.2170 349.7426 0000939  59.7702 300.3383 15.08838129 33174","RCS_SIZE":"LARGE","GP_ID":"229739170","ECCENTRICITY":"0.00009390","EPOCH":"2023-04-08T17:03:45.733536","SITE":"AFETR","PERIOD":"95.438","EPHEMERIS_TYPE":"0","LAUNCH_DATE":"2022-09-05","OBJECT_NAME":"STARLINK-4714","MEAN_MOTION_DDOT":"0.0000000000000","PERIAPSIS":"539.102","TIME_SYSTEM":"UTC","MEAN_MOTION":"15.08838129","TLE_LINE1":"1 53704U 22107E   23098.71094599 -.00000220  00000-0  42263-5 0  9994","REF_FRAME":"TEME","OBJECT_ID":"2022-107E","OBJECT_TYPE":"PAYLOAD","DECAY_DATE":null,"MEAN_MOTION_DOT":"-0.00000220","REV_AT_EPOCH":"3317","COUNTRY_CODE":"US","CENTER_NAME":"EARTH","ARG_OF_PERICENTER":"59.7702"},{"TLE_LINE1":"1 53705U 22107F   23098.11110036  .00006434  00000-0  42181-3 0  9993","MEAN_MOTION":"15.08851004","TIME_SYSTEM":"UTC","PERIAPSIS":"539.257","MEAN_MOTION_DDOT":"0.0000000000000","ARG_OF_PERICENTER":"68.6854","CENTER_NAME":"EARTH","COUNTRY_CODE":"US","REV_AT_EPOCH":"3383","MEAN_MOTION_DOT":"0.00006434","DECAY_DATE":null,"OBJECT_ID":"2022-107F","OBJECT_TYPE":"PAYLOAD","REF_FRAME":"TEME","TLE_LINE2":"2 53705  53.2163 352.3957 0000658  68.6854 291.4209 15.08851004 33838","MEAN_ANOMALY":"291.4209","APOAPSIS":"540.167","BSTAR":"0.00042181000000","ELEMENT_SET_NO":"999","RA_OF_ASC_NODE":"352.3957","FILE":"3883527","CLASSIFICATION_TYPE":"U","SEMIMAJOR_AXIS":"6917.847","INCLINATION":"53.2163","NORAD_CAT_ID":"53705","MEAN_ELEMENT_THEORY":"SGP4","LAUNCH_DATE":"2022-09-05","OBJECT_NAME":"STARLINK-4717","EPHEMERIS_TYPE":"0","PERIOD":"95.437","SITE":"AFETR","EPOCH":"2023-04-08T02:39:59.071104","GP_ID":"229732719","ECCENTRICITY":"0.00006580","RCS_SIZE":"LARGE"},{"RA_OF_ASC_NODE":"352.3298","BSTAR":"0.00007950700000","ELEMENT_SET_NO":"999","APOAPSIS":"540.594","MEAN_ANOMALY":"266.9297","TLE_LINE2":"2 53706  53.2172 352.3298 0001241  93.1838 266.9297 15.08843265 33835","NORAD_CAT_ID":"53706","MEAN_ELEMENT_THEORY":"SGP4","SEMIMAJOR_AXIS":"6917.870","INCLINATION":"53.2172","CLASSIFICATION_TYPE":"U","FILE":"3883527","SITE":"AFETR","PERIOD":"95.437","EPHEMERIS_TYPE":"0","LAUNCH_DATE":"2022-09-05","OBJECT_NAME":"STARLINK-4716","RCS_SIZE":"LARGE","GP_ID":"229732971","ECCENTRICITY":"0.00012410","EPOCH":"2023-04-08T02:25:26.775840","TIME_SYSTEM":"UTC","MEAN_MOTION":"15.08843265","TLE_LINE1":"1 53706U 22107G   23098.10100435  .00000978  00000-0  79507-4 0  9995","MEAN_MOTION_DDOT":"0.0000000000000","PERIAPSIS":"538.877","DECAY_DATE":null,"MEAN_MOTION_DOT":"0.00000978","COUNTRY_CODE":"US","REV_AT_EPOCH":"3383","CENTER_NAME":"EARTH","ARG_OF_PERICENTER":"93.1838","REF_FRAME":"TEME","OBJECT_TYPE":"PAYLOAD","OBJECT_ID":"2022-107G"},{"NORAD_CAT_ID":"53707","MEAN_ELEMENT_THEORY":"SGP4","CLASSIFICATION_TYPE":"U","FILE":"3883726","SEMIMAJOR_AXIS":"6917.908","INCLINATION":"53.2183","APOAPSIS":"540.635","BSTAR":"-0.00010134000000","ELEMENT_SET_NO":"999","RA_OF_ASC_NODE":"334.6190","TLE_LINE2":"2 53707  53.2183 334.6190 0001246  78.6509 281.4623 15.08831056 33380","MEAN_ANOMALY":"281.4623","GP_ID":"229739192","ECCENTRICITY":"0.00012460","RCS_SIZE":"LARGE","EPOCH":"2023-04-08T16:25:58.682208","SITE":"AFETR","OBJECT_NAME":"STARLINK-4667","LAUNCH_DATE":"2022-09-05","EPHEMERIS_TYPE":"0","PERIOD":"95.438","MEAN_MOTION_DDOT":"0.0000000000000","PERIAPSIS":"538.911","MEAN_MOTION":"15.08831056","TIME_SYSTEM":"UTC","TLE_LINE1":"1 53707U 22107H   23098.68470697 -.00001900  00000-0 -10134-3 0  9997","REF_FRAME":"TEME","OBJECT_ID":"2022-107H","OBJECT_TYPE":"PAYLOAD","MEAN_MOTION_DOT":"-0.00001900","DECAY_DATE":null,"ARG_OF_PERICENTER":"78.6509","CENTER_NAME":"EARTH","COUNTRY_CODE":"US","REV_AT_EPOCH":"3338"},{"MEAN_MOTION_DOT":"0.00000320","DECAY_DATE":null,"ARG_OF_PERICENTER":"102.2054","COUNTRY_CODE":"US","REV_AT_EPOCH":"3337","CENTER_NAME":"EARTH","REF_FRAME":"TEME","OBJECT_TYPE":"PAYLOAD","OBJECT_ID":"2022-107J","TIME_SYSTEM":"UTC","MEAN_MOTION":"15.08835590","TLE_LINE1":"1 53708U 22107J   23098.64889588  .00000320  00000-0  38161-4 0  9991","MEAN_MOTION_DDOT":"0.0000000000000","PERIAPSIS":"539.038","SITE":"AFETR","LAUNCH_DATE":"2022-09-05","OBJECT_NAME":"STARLINK-4694","PERIOD":"95.438","EPHEMERIS_TYPE":"0","RCS_SIZE":"LARGE","GP_ID":"229738822","ECCENTRICITY":"0.00010420","EPOCH":"2023-04-08T15:34:24.604032","ELEMENT_SET_NO":"999","BSTAR":"0.00003816100000","APOAPSIS":"540.480","RA_OF_ASC_NODE":"335.1027","TLE_LINE2":"2 53708  53.2165 335.1027 0001042 102.2054 257.9055 15.08835590 33372","MEAN_ANOMALY":"257.9055","NORAD_CAT_ID":"53708","MEAN_ELEMENT_THEORY":"SGP4","CLASSIFICATION_TYPE":"U","FILE":"3883726","INCLINATION":"53.2165","SEMIMAJOR_AXIS":"6917.894"},{"INCLINATION":"53.2173","SEMIMAJOR_AXIS":"6917.828","CLASSIFICATION_TYPE":"U","FILE":"3883726","NORAD_CAT_ID":"53709","MEAN_ELEMENT_THEORY":"SGP4","MEAN_ANOMALY":"275.6047","TLE_LINE2":"2 53709  53.2173 354.1261 0001059  84.5066 275.6047 15.08857044 33114","RA_OF_ASC_NODE":"354.1261","APOAPSIS":"540.426","ELEMENT_SET_NO":"999","BSTAR":"0.00103780000000","EPOCH":"2023-04-08T17:21:33.903648","GP_ID":"229739186","ECCENTRICITY":"0.00010590","RCS_SIZE":"LARGE","EPHEMERIS_TYPE":"0","PERIOD":"95.436","LAUNCH_DATE":"2022-09-05","OBJECT_NAME":"STARLINK-4685","SITE":"AFETR","PERIAPSIS":"538.961","MEAN_MOTION_DDOT":"0.0000000000000","TLE_LINE1":"1 53709U 22107K   23098.72330907  .00016275  00000-0  10378-2 0  9991","MEAN_MOTION":"15.08857044","TIME_SYSTEM":"UTC","OBJECT_TYPE":"PAYLOAD","OBJECT_ID":"2022-107K","REF_FRAME":"TEME","CENTER_NAME":"EARTH","REV_AT_EPOCH":"3311","COUNTRY_CODE":"US","ARG_OF_PERICENTER":"84.5066","DECAY_DATE":null,"MEAN_MOTION_DOT":"0.00016275"},{"INCLINATION":"53.2166","SEMIMAJOR_AXIS":"6917.873","CLASSIFICATION_TYPE":"U","FILE":"3883726","NORAD_CAT_ID":"53711","MEAN_ELEMENT_THEORY":"SGP4","MEAN_ANOMALY":"271.3822","TLE_LINE2":"2 53711  53.2166 354.1873 0001382  88.7329 271.3822 15.08842380 33116","RA_OF_ASC_NODE":"354.1873","APOAPSIS":"540.694","BSTAR":"0.00007613300000","ELEMENT_SET_NO":"999","EPOCH":"2023-04-08T17:37:27.886656","GP_ID":"229739184","ECCENTRICITY":"0.00013820","RCS_SIZE":"LARGE","EPHEMERIS_TYPE":"0","PERIOD":"95.437","OBJECT_NAME":"STARLINK-4627","LAUNCH_DATE":"2022-09-05","SITE":"AFETR","PERIAPSIS":"538.782","MEAN_MOTION_DDOT":"0.0000000000000","TLE_LINE1":"1 53711U 22107M   23098.73435054  .00000924  00000-0  76133-4 0  9991","MEAN_MOTION":"15.08842380","TIME_SYSTEM":"UTC","OBJECT_TYPE":"PAYLOAD","OBJECT_ID":"2022-107M","REF_FRAME":"TEME","CENTER_NAME":"EARTH","COUNTRY_CODE":"US","REV_AT_EPOCH":"3311","ARG_OF_PERICENTER":"88.7329","DECAY_DATE":null,"MEAN_MOTION_DOT":"0.00000924"},{"MEAN_MOTION_DOT":"0.00006448","DECAY_DATE":null,"ARG_OF_PERICENTER":"84.3728","COUNTRY_CODE":"US","REV_AT_EPOCH":"3348","CENTER_NAME":"EARTH","REF_FRAME":"TEME","OBJECT_TYPE":"PAYLOAD","OBJECT_ID":"2022-107N","TIME_SYSTEM":"UTC","MEAN_MOTION":"15.08855716","TLE_LINE1":"1 53712U 22107N   23098.13177556  .00006448  00000-0  42265-3 0  9991","MEAN_MOTION_DDOT":"0.0000000000000","PERIAPSIS":"538.775","SITE":"AFETR","OBJECT_NAME":"STARLINK-4683","LAUNCH_DATE":"2022-09-05","PERIOD":"95.437","EPHEMERIS_TYPE":"0","RCS_SIZE":"LARGE","GP_ID":"229733218","ECCENTRICITY":"0.00013340","EPOCH":"2023-04-08T03:09:45.408384","BSTAR":"0.00042265000000","ELEMENT_SET_NO":"999","APOAPSIS":"540.620","RA_OF_ASC_NODE":"356.8363","TLE_LINE2":"2 53712  53.2182 356.8363 0001334  84.3728 275.7416 15.08855716 33484","MEAN_ANOMALY":"275.7416","NORAD_CAT_ID":"53712","MEAN_ELEMENT_THEORY":"SGP4","FILE":"3883527","CLASSIFICATION_TYPE":"U","SEMIMAJOR_AXIS":"6917.832","INCLINATION":"53.2182"},{"TLE_LINE1":"1 53713U 22107P   23098.05490022  .00004751  00000-0  31630-3 0  9998","TIME_SYSTEM":"UTC","MEAN_MOTION":"15.08850841","PERIAPSIS":"538.922","MEAN_MOTION_DDOT":"0.0000000000000","ARG_OF_PERICENTER":"93.0079","COUNTRY_CODE":"US","REV_AT_EPOCH":"3338","CENTER_NAME":"EARTH","MEAN_MOTION_DOT":"0.00004751","DECAY_DATE":null,"OBJECT_TYPE":"PAYLOAD","OBJECT_ID":"2022-107P","REF_FRAME":"TEME","TLE_LINE2":"2 53713  53.2159   2.0305 0001143  93.0079 267.1044 15.08850841 33384","MEAN_ANOMALY":"267.1044","BSTAR":"0.00031630000000","ELEMENT_SET_NO":"999","APOAPSIS":"540.503","RA_OF_ASC_NODE":"2.0305","CLASSIFICATION_TYPE":"U","FILE":"3883527","INCLINATION":"53.2159","SEMIMAJOR_AXIS":"6917.847","MEAN_ELEMENT_THEORY":"SGP4","NORAD_CAT_ID":"53713","OBJECT_NAME":"STARLINK-4698","LAUNCH_DATE":"2022-09-05","PERIOD":"95.437","EPHEMERIS_TYPE":"0","SITE":"AFETR","EPOCH":"2023-04-08T01:19:03.379008","RCS_SIZE":"LARGE","GP_ID":"229732470","ECCENTRICITY":"0.00011430"},{"APOAPSIS":"540.547","BSTAR":"0.00060130000000","ELEMENT_SET_NO":"999","RA_OF_ASC_NODE":"337.1587","TLE_LINE2":"2 53714  53.2164 337.1587 0001232  84.2354 275.8779 15.08856508 33738","MEAN_ANOMALY":"275.8779","NORAD_CAT_ID":"53714","MEAN_ELEMENT_THEORY":"SGP4","FILE":"3883527","CLASSIFICATION_TYPE":"U","SEMIMAJOR_AXIS":"6917.830","INCLINATION":"53.2164","SITE":"AFETR","LAUNCH_DATE":"2022-09-05","OBJECT_NAME":"STARLINK-4688","EPHEMERIS_TYPE":"0","PERIOD":"95.437","GP_ID":"229732720","ECCENTRICITY":"0.00012320","RCS_SIZE":"LARGE","EPOCH":"2023-04-08T01:35:39.003360","MEAN_MOTION":"15.08856508","TIME_SYSTEM":"UTC","TLE_LINE1":"1 53714U 22107Q   23098.06642365  .00009299  00000-0  60130-3 0  9998","MEAN_MOTION_DDOT":"0.0000000000000","PERIAPSIS":"538.843","MEAN_MOTION_DOT":"0.00009299","DECAY_DATE":null,"ARG_OF_PERICENTER":"84.2354","CENTER_NAME":"EARTH","REV_AT_EPOCH":"3373","COUNTRY_CODE":"US","REF_FRAME":"TEME","OBJECT_ID":"2022-107Q","OBJECT_TYPE":"PAYLOAD"}];
